RESURS-DK 1             
1 29228U 06021A   24189.59192631  .00003060  00000+0  20810-3 0  9994
2 29228  69.9356   9.4113 0005795 310.1677  49.8978 15.07447164995391
COSMO-SKYMED 1          
1 31598U 07023A   24190.13165870  .00000733  00000+0  98567-4 0  9996
2 31598  97.8871  12.9680 0001456  87.6096 272.5284 14.82172314924295
ALOS-2                  
1 39766U 14029A   24190.21163471  .00000620  00000+0  89916-4 0  9992
2 39766  97.9231 286.5521 0001629  95.3543 264.7855 14.79468280546786
YAOGAN-29               
1 41038U 15069A   24189.97565840  .00000726  00000+0  99014-4 0  9996
2 41038  98.0541 204.5086 0002389 131.4625 228.6793 14.81730278465546
HXMT (HUIYAN)           
1 42758U 17034A   24190.13671800  .00005205  00000+0  28685-3 0  9996
2 42758  43.0134 158.8651 0015084 286.6418  73.2773 15.14784159390039
CSS (TIANHE)            
1 48274U 21035A   24189.74314325  .00038365  00000+0  40188-3 0  9997
2 48274  41.4690 317.6531 0004464 347.3216  12.7511 15.63646273182316
CZ-4B R/B               
1 28415U 04035C   24189.66527712  .00005420  00000+0  27906-3 0  9999
2 28415  97.4212 222.8750 0040786 313.7097  46.0760 15.16101204 87063
CZ-2C R/B               
1 28480U 04046B   24189.43195573  .00000197  00000+0  88847-4 0  9992
2 28480  98.1629 132.2995 0140980 158.9890 201.7164 14.26395049 21481
ARIANE 5 R/B            
1 28499U 04049H   24189.44217771  .00001738  00000+0  20853-3 0  9995
2 28499  98.1870 327.8772 0088444 166.7109 193.6463 14.82658741 55278
CZ-2D R/B               
1 28738U 05024B   24189.58683043  .00010838  00000+0  41445-3 0  9990
2 28738  97.3625 187.8607 0010742  77.5919 282.6521 15.26713709 45782
SUZAKU (ASTRO-EII)      
1 28773U 05025A   24189.58643374  .00035348  00000+0  65698-3 0  9992
2 28773  31.3881   0.6774 0001641  91.0004 269.0840 15.47670781 50159
ALOS (DAICHI)           
1 28931U 06002A   24189.90783202  .00002289  00000+0  42681-3 0  9990
2 28931  98.0375 142.5264 0002599  84.2141 275.9359 14.65940412984384
H-2A R/B                
1 28932U 06002B   24190.16781737  .00006772  00000+0  49978-3 0  9999
2 28932  98.2016 283.0579 0071457 134.5213 226.1879 15.01571098  2586
GENESIS 1               
1 29252U 06029A   24190.15981866  .00018751  00000+0  47234-3 0  9991
2 29252  64.5157  95.2305 0026095 320.3118  39.6105 15.39643503993884
CZ-4B R/B               
1 29507U 06046C   24189.59519391  .00004600  00000+0  29888-3 0  9992
2 29507  97.6407 225.5302 0039679 205.5219 154.4051 15.07879489967791
CZ-2C R/B               
1 31114U 07010B   24189.41117833  .00000181  00000+0  10304-3 0  9990
2 31114  98.3353 324.2990 0058171 269.5222  89.9290 14.19806531893108
GENESIS 2               
1 31789U 07028A   24189.24714016  .00015673  00000+0  42265-3 0  9997
2 31789  64.4892 144.0601 0019843 226.2930 133.6560 15.37793830940506
COSMOS 2428             
1 31792U 07029A   24189.59149627 -.00000213  00000+0 -88925-4 0  9990
2 31792  70.9391  43.9593 0009363   9.2925 350.8368 14.12708119877924
SL-16 R/B               
1 31793U 07029B   24189.59530111 -.00000256  00000+0 -10839-3 0  9998
2 31793  70.9760  14.6884 0002486 261.2296 156.1557 14.14638227879083
KORONAS-FOTON           
1 33504U 09003A   24189.97805381  .00007790  00000+0  29493-3 0  9994
2 33504  82.4361 181.7542 0016354 161.4950 198.6886 15.26634350852325
CZ-2C R/B               
1 37731U 11030B   24189.51047789  .00001456  00000+0  20466-3 0  9997
2 37731  97.7648 152.6586 0056145 172.7159 302.8509 14.77785694699852
H-2A R/B                
1 38341U 12025E   24189.70937182  .00003312  00000+0  35233-3 0  9997
2 38341  98.4226 102.5417 0051347 140.2276 220.2721 14.88771960657324
CUSAT 2 & FALCON 9 R/B  
1 39271U 13055G   24189.71345834  .00045991 -12582-6  50117-3 0  9995
2 39271  80.9309  54.7600 0290390 237.6749 119.6067 15.25734066568509
SHIJIAN-16 (SJ-16)      
1 39358U 13057A   24190.21151113  .00002106  00000+0  22651-3 0  9992
2 39358  74.9729 256.3725 0016675 149.6894 210.5260 14.88960044580748
SL-4 R/B                
1 39679U 14021B   24189.28604972  .00009411  00000+0  34766-3 0  9997
2 39679  51.6084  33.7221 0135618  69.1238 292.4198 15.20231259562829
SL-27 R/B               
1 40354U 14084B   24189.93607824  .00064080  00000+0  35865-3 0  9993
2 40354  74.7204 164.3419 0017856 298.9098  61.0343 15.78826045537819
ASTRO-H (HITOMI)        
1 41337U 16012A   24189.50671163  .00003376  00000+0  23233-3 0  9995
2 41337  31.0030 318.2901 0010919 339.4206  20.5990 15.03972554460082
CZ-2C R/B               
1 43521U 18054D   24189.13022666  .00010409  00000+0  34267-3 0  9991
2 43521  35.1454 350.0830 0057516 311.8972  47.6851 15.29092731333923
SAOCOM 1A               
1 43641U 18076A   24190.14024606  .00000616  00000+0  83916-4 0  9992
2 43641  97.8885  16.0614 0001387  90.1649 269.9723 14.82145000311076
H-2A R/B                
1 43682U 18084L   24190.22656208  .00007354  00000+0  38560-3 0  9994
2 43682  98.8524 281.1188 0043042 299.7149  59.9798 15.15353874312683
SAOCOM 1B               
1 46265U 20059A   24189.96896939  .00000714  00000+0  96319-4 0  9995
2 46265  97.8887  14.9856 0001393  87.8918 272.2455 14.82149048208448
