OBJECT_NAME,OBJECT_ID,EPOCH,MEAN_MOTION,ECCENTRICITY,INCLINATION,RA_OF_ASC_NODE,ARG_OF_PERICENTER,MEAN_ANOMALY,EPHEMERIS_TYPE,CLASSIFICATION_TYPE,NORAD_CAT_ID,ELEMENT_SET_NO,REV_AT_EPOCH,BSTAR,MEAN_MOTION_DOT,MEAN_MOTION_DDOT
CZ-4B R/B,2004-035C,2024-07-07T15:57:59.943168,15.16101204,.0040786,97.4212,222.8750,313.7097,46.0760,0,U,28415,999,8706,.27906E-3,.542E-4,0
CZ-2C R/B,2004-046B,2024-07-07T10:22:00.975072,14.26395049,.014098,98.1629,132.2995,158.9890,201.7164,0,U,28480,999,2148,.88847E-4,.197E-5,0
ARIANE 5 R/B,2004-049H,2024-07-07T10:36:44.154144,14.82658741,.0088444,98.1870,327.8772,166.7109,193.6463,0,U,28499,999,5527,.20853E-3,.1738E-4,0
CZ-2D R/B,2005-024B,2024-07-07T14:05:02.149152,15.26713709,.0010742,97.3625,187.8607,77.5919,282.6521,0,U,28738,999,4578,.41445E-3,.10838E-3,0
SUZAKU (ASTRO-EII),2005-025A,2024-07-07T14:04:27.875136,15.47670781,.0001641,31.3881,0.6774,91.0004,269.0840,0,U,28773,999,5015,.65698E-3,.35348E-3,0
ALOS (DAICHI),2006-002A,2024-07-07T21:47:16.686528,14.65940412,.0002599,98.0375,142.5264,84.2141,275.9359,0,U,28931,999,98438,.42681E-3,.2289E-4,0
H-2A R/B,2006-002B,2024-07-08T04:01:39.420768,15.01571098,.0071457,98.2016,283.0579,134.5213,226.1879,0,U,28932,999,258,.49978E-3,.6772E-4,0
RESURS-DK 1,2006-021A,2024-07-07T14:12:22.433184,15.07447164,.0005795,69.9356,9.4113,310.1677,49.8978,0,U,29228,999,99539,.2081E-3,.306E-4,0
GENESIS 1,2006-029A,2024-07-08T03:50:08.332224,15.39643503,.0026095,64.5157,95.2305,320.3118,39.6105,0,U,29252,999,99388,.47234E-3,.18751E-3,0
CZ-4B R/B,2006-046C,2024-07-07T14:17:04.753824,15.07879489,.0039679,97.6407,225.5302,205.5219,154.4051,0,U,29507,999,96779,.29888E-3,.46E-4,0
CZ-2C R/B,2007-010B,2024-07-07T09:52:05.807712,14.19806531,.0058171,98.3353,324.2990,269.5222,89.9290,0,U,31114,999,89310,.10304E-3,.181E-5,0
COSMO-SKYMED 1,2007-023A,2024-07-08T03:09:35.311680,14.82172314,.0001456,97.8871,12.9680,87.6096,272.5284,0,U,31598,999,92429,.98567E-4,.733E-5,0
GENESIS 2,2007-028A,2024-07-07T05:55:52.909824,15.37793830,.0019843,64.4892,144.0601,226.2930,133.6560,0,U,31789,999,94050,.42265E-3,.15673E-3,0
COSMOS 2428,2007-029A,2024-07-07T14:11:45.277728,14.12708119,.0009363,70.9391,43.9593,9.2925,350.8368,0,U,31792,999,87792,-.88925E-4,-.213E-5,0
SL-16 R/B,2007-029B,2024-07-07T14:17:14.015904,14.14638227,.0002486,70.9760,14.6884,261.2296,156.1557,0,U,31793,999,87908,-.10839E-3,-.256E-5,0
KORONAS-FOTON,2009-003A,2024-07-07T23:28:23.849184,15.26634350,.0016354,82.4361,181.7542,161.4950,198.6886,0,U,33504,999,85232,.29493E-3,.779E-4,0
CZ-2C R/B,2011-030B,2024-07-07T12:15:05.289696,14.77785694,.0056145,97.7648,152.6586,172.7159,302.8509,0,U,37731,999,69985,.20466E-3,.1456E-4,0
H-2A R/B,2012-025E,2024-07-07T17:01:29.725248,14.88771960,.0051347,98.4226,102.5417,140.2276,220.2721,0,U,38341,999,65732,.35233E-3,.3312E-4,0
CUSAT 2 & FALCON 9 R/B,2013-055G,2024-07-07T17:07:22.800576,15.25734066,.029039,80.9309,54.7600,237.6749,119.6067,0,U,39271,999,56850,.50117E-3,.45991E-3,-.12582E-6
SHIJIAN-16 (SJ-16),2013-057A,2024-07-08T05:04:34.561632,14.88960044,.0016675,74.9729,256.3725,149.6894,210.5260,0,U,39358,999,58074,.22651E-3,.2106E-4,0
SL-4 R/B,2014-021B,2024-07-07T06:51:54.695808,15.20231259,.0135618,51.6084,33.7221,69.1238,292.4198,0,U,39679,999,56282,.34766E-3,.9411E-4,0
ALOS-2,2014-029A,2024-07-08T05:04:45.238944,14.79468280,.0001629,97.9231,286.5521,95.3543,264.7855,0,U,39766,999,54678,.89916E-4,.62E-5,0
SL-27 R/B,2014-084B,2024-07-07T22:27:57.159936,15.78826045,.0017856,74.7204,164.3419,298.9098,61.0343,0,U,40354,999,53781,.35865E-3,.6408E-3,0
YAOGAN-29,2015-069A,2024-07-07T23:24:56.885760,14.81730278,.0002389,98.0541,204.5086,131.4625,228.6793,0,U,41038,999,46554,.99014E-4,.726E-5,0
ASTRO-H (HITOMI),2016-012A,2024-07-07T12:09:39.884832,15.03972554,.0010919,31.0030,318.2901,339.4206,20.5990,0,U,41337,999,46008,.23233E-3,.3376E-4,0
HXMT (HUIYAN),2017-034A,2024-07-08T03:16:52.435200,15.14784159,.0015084,43.0134,158.8651,286.6418,73.2773,0,U,42758,999,39003,.28685E-3,.5205E-4,0
CZ-2C R/B,2018-054D,2024-07-07T03:07:31.583424,15.29092731,.0057516,35.1454,350.0830,311.8972,47.6851,0,U,43521,999,33392,.34267E-3,.10409E-3,0
SAOCOM 1A,2018-076A,2024-07-08T03:21:57.259584,14.82145000,.0001387,97.8885,16.0614,90.1649,269.9723,0,U,43641,999,31107,.83916E-4,.616E-5,0
H-2A R/B,2018-084L,2024-07-08T05:26:14.963712,15.15353874,.0043042,98.8524,281.1188,299.7149,59.9798,0,U,43682,999,31268,.3856E-3,.7354E-4,0
SAOCOM 1B,2020-059A,2024-07-07T23:15:18.955296,14.82149048,.0001393,97.8887,14.9856,87.8918,272.2455,0,U,46265,999,20844,.96319E-4,.714E-5,0
CSS (TIANHE),2021-035A,2024-07-07T17:50:07.576800,15.63646273,.0004464,41.4690,317.6531,347.3216,12.7511,0,U,48274,999,18231,.40188E-3,.38365E-3,0
